{"type": "FeatureCollection", "features": [{"type": "Feature", "properties": {"id": 820347697, "kind": "shed"}, "geometry": {"type": "Point", "coordinates": [153.26713, -28.84498]}}, {"type": "Feature", "properties": {"id": 820347698, "kind": "house"}, "geometry": {"type": "Point", "coordinates": [153.26729, -28.84545]}}, {"type": "Feature", "properties": {"id": 820347699, "kind": "shed"}, "geometry": {"type": "Point", "coordinates": [153.26738, -28.84556]}}, {"type": "Feature", "properties": {"id": 820347700, "kind": "shed"}, "geometry": {"type": "Point", "coordinates": [153.26736, -28.84574]}}, {"type": "Feature", "properties": {"id": 1037472676, "kind": "yes"}, "geometry": {"type": "Point", "coordinates": [153.2747, -28.97193]}}, {"type": "Feature", "properties": {"id": 1037472677, "kind": "yes"}, "geometry": {"type": "Point", "coordinates": [153.27459, -28.97183]}}, {"type": "Feature", "properties": {"id": 1037472678, "kind": "yes"}, "geometry": {"type": "Point", "coordinates": [153.27461, -28.97179]}}, {"type": "Feature", "properties": {"id": 1037472679, "kind": "yes"}, "geometry": {"type": "Point", "coordinates": [153.2747, -28.97167]}}, {"type": "Feature", "properties": {"id": 1037472680, "kind": "detached"}, "geometry": {"type": "Point", "coordinates": [153.27509, -28.97132]}}, {"type": "Feature", "properties": {"id": 1037472681, "kind": "yes"}, "geometry": {"type": "Point", "coordinates": [153.27515, -28.97144]}}, {"type": "Feature", "properties": {"id": 1037472682, "kind": "yes"}, "geometry": {"type": "Point", "coordinates": [153.27525, -28.97111]}}, {"type": "Feature", "properties": {"id": 1037472684, "kind": "yes"}, "geometry": {"type": "Point", "coordinates": [153.27877, -28.96959]}}, {"type": "Feature", "properties": {"id": 1037472685, "kind": "yes"}, "geometry": {"type": "Point", "coordinates": [153.27852, -28.96973]}}, {"type": "Feature", "properties": {"id": 1037472686, "kind": "yes"}, "geometry": {"type": "Point", "coordinates": [153.27848, -28.96984]}}, {"type": "Feature", "properties": {"id": 1037472687, "kind": "yes"}, "geometry": {"type": "Point", "coordinates": [153.27849, -28.96988]}}, {"type": "Feature", "properties": {"id": 1037472688, "kind": "detached"}, "geometry": {"type": "Point", "coordinates": [153.27871, -28.96992]}}, {"type": "Feature", "properties": {"id": 1037472690, "kind": "detached"}, "geometry": {"type": "Point", "coordinates": [153.27848, -28.9711]}}, {"type": "Feature", "properties": {"id": 1037472691, "kind": "yes"}, "geometry": {"type": "Point", "coordinates": [153.27856, -28.97115]}}, {"type": "Feature", "properties": {"id": 1037472692, "kind": "yes"}, "geometry": {"type": "Point", "coordinates": [153.2786, -28.97113]}}, {"type": "Feature", "properties": {"id": 1037472693, "kind": "yes"}, "geometry": {"type": "Point", "coordinates": [153.27863, -28.97111]}}, {"type": "Feature", "properties": {"id": 1037472694, "kind": "yes"}, "geometry": {"type": "Point", "coordinates": [153.27872, -28.97103]}}, {"type": "Feature", "properties": {"id": 1037472695, "kind": "detached"}, "geometry": {"type": "Point", "coordinates": [153.28082, -28.97193]}}, {"type": "Feature", "properties": {"id": 1037472696, "kind": "yes"}, "geometry": {"type": "Point", "coordinates": [153.2808, -28.97203]}}, {"type": "Feature", "properties": {"id": 1037472697, "kind": "yes"}, "geometry": {"type": "Point", "coordinates": [153.28079, -28.97206]}}, {"type": "Feature", "properties": {"id": 1037472698, "kind": "yes"}, "geometry": {"type": "Point", "coordinates": [153.28085, -28.97202]}}, {"type": "Feature", "properties": {"id": 1037472699, "kind": "yes"}, "geometry": {"type": "Point", "coordinates": [153.28094, -28.97212]}}, {"type": "Feature", "properties": {"id": 1037472700, "kind": "yes"}, "geometry": {"type": "Point", "coordinates": [153.28113, -28.97169]}}, {"type": "Feature", "properties": {"id": 1037472701, "kind": "detached"}, "geometry": {"type": "Point", "coordinates": [153.28136, -28.97169]}}, {"type": "Feature", "properties": {"id": 1037472702, "kind": "yes"}, "geometry": {"type": "Point", "coordinates": [153.28141, -28.9718]}}, {"type": "Feature", "properties": {"id": 1037472703, "kind": "yes"}, "geometry": {"type": "Point", "coordinates": [153.2817, -28.9718]}}, {"type": "Feature", "properties": {"id": 1037472704, "kind": "yes"}, "geometry": {"type": "Point", "coordinates": [153.2817, -28.97184]}}, {"type": "Feature", "properties": {"id": 1037472705, "kind": "yes"}, "geometry": {"type": "Point", "coordinates": [153.28171, -28.97188]}}, {"type": "Feature", "properties": {"id": 1037472706, "kind": "yes"}, "geometry": {"type": "Point", "coordinates": [153.28159, -28.97183]}}, {"type": "Feature", "properties": {"id": 1037472707, "kind": "detached"}, "geometry": {"type": "Point", "coordinates": [153.2819, -28.9718]}}, {"type": "Feature", "properties": {"id": 1037472708, "kind": "yes"}, "geometry": {"type": "Point", "coordinates": [153.2826, -28.97172]}}, {"type": "Feature", "properties": {"id": 1037472709, "kind": "yes"}, "geometry": {"type": "Point", "coordinates": [153.28268, -28.97173]}}, {"type": "Feature", "properties": {"id": 1037472710, "kind": "yes"}, "geometry": {"type": "Point", "coordinates": [153.28274, -28.97175]}}, {"type": "Feature", "properties": {"id": 1037472711, "kind": "yes"}, "geometry": {"type": "Point", "coordinates": [153.2826, -28.97202]}}, {"type": "Feature", "properties": {"id": 1037472712, "kind": "detached"}, "geometry": {"type": "Point", "coordinates": [153.28316, -28.97174]}}, {"type": "Feature", "properties": {"id": 1037472713, "kind": "yes"}, "geometry": {"type": "Point", "coordinates": [153.28324, -28.9718]}}, {"type": "Feature", "properties": {"id": 1037472714, "kind": "yes"}, "geometry": {"type": "Point", "coordinates": [153.28334, -28.97173]}}, {"type": "Feature", "properties": {"id": 1037472715, "kind": "yes"}, "geometry": {"type": "Point", "coordinates": [153.28312, -28.97186]}}, {"type": "Feature", "properties": {"id": 1037472716, "kind": "yes"}, "geometry": {"type": "Point", "coordinates": [153.28315, -28.97189]}}, {"type": "Feature", "properties": {"id": 1037472717, "kind": "yes"}, "geometry": {"type": "Point", "coordinates": [153.28359, -28.97166]}}, {"type": "Feature", "properties": {"id": 1037472718, "kind": "yes"}, "geometry": {"type": "Point", "coordinates": [153.28427, -28.97192]}}, {"type": "Feature", "properties": {"id": 1037472719, "kind": "yes"}, "geometry": {"type": "Point", "coordinates": [153.28433, -28.97196]}}, {"type": "Feature", "properties": {"id": 1037472720, "kind": "yes"}, "geometry": {"type": "Point", "coordinates": [153.28435, -28.97203]}}, {"type": "Feature", "properties": {"id": 1037472721, "kind": "detached"}, "geometry": {"type": "Point", "coordinates": [153.28362, -28.96973]}}, {"type": "Feature", "properties": {"id": 1037472722, "kind": "yes"}, "geometry": {"type": "Point", "coordinates": [153.28351, -28.96978]}}, {"type": "Feature", "properties": {"id": 1037472723, "kind": "yes"}, "geometry": {"type": "Point", "coordinates": [153.28349, -28.96983]}}, {"type": "Feature", "properties": {"id": 1037472724, "kind": "yes"}, "geometry": {"type": "Point", "coordinates": [153.28361, -28.96983]}}, {"type": "Feature", "properties": {"id": 1037472725, "kind": "yes"}, "geometry": {"type": "Point", "coordinates": [153.28423, -28.96991]}}, {"type": "Feature", "properties": {"id": 1037472726, "kind": "yes"}, "geometry": {"type": "Point", "coordinates": [153.28423, -28.96996]}}, {"type": "Feature", "properties": {"id": 1037472727, "kind": "yes"}, "geometry": {"type": "Point", "coordinates": [153.28445, -28.9702]}}, {"type": "Feature", "properties": {"id": 1037472728, "kind": "yes"}, "geometry": {"type": "Point", "coordinates": [153.28533, -28.97002]}}, {"type": "Feature", "properties": {"id": 1037472729, "kind": "detached"}, "geometry": {"type": "Point", "coordinates": [153.28883, -28.97452]}}, {"type": "Feature", "properties": {"id": 1053300241, "kind": "yes"}, "geometry": {"type": "Point", "coordinates": [153.29858, -28.88992]}}]}